{
  "type": "FeatureCollection",
  "name": "nijkerk-losloopgebieden-2026",
  "properties": {
    "source": "Gemeente Nijkerk",
    "source_url": "https://www.nijkerk.eu/hondenbeleid",
    "source_map": "https://cuatro.sim-cdn.nl/nijkerk/uploads/2.2%20Hondenuitlaatkaart%20Nijkerk%20jan%202026.pdf?cb=-utJx3kH",
    "decision_date": "2026-03-03",
    "digitalisation": "Whatsup dog",
    "status": "afgeleid van officiële honden-uitlaatkaart; geen gemeentelijke bron-GIS",
    "quality_note": "Kleurgetraceerd uit de officiële gemeentelijke PDF; blauwe toelichtingstekst verwijderd; gegeorefereerd met Nijkerkse kaartlabels."
  },
  "features": [
    {
      "type": "Feature",
      "properties": {
        "category": "losloopgebied",
        "source": "Gemeente Nijkerk",
        "source_url": "https://www.nijkerk.eu/hondenbeleid",
        "source_map": "https://cuatro.sim-cdn.nl/nijkerk/uploads/2.2%20Hondenuitlaatkaart%20Nijkerk%20jan%202026.pdf?cb=-utJx3kH",
        "source_decision": "collegebesluit 3 maart 2026",
        "digitalisation": "Whatsup dog",
        "status": "gedigitaliseerd van officiële kaart",
        "area_m2_approx": 6115.4,
        "id": "nijkerk-losloop-01",
        "name": "Losloopgebied 1",
        "quality": "digitised-from-official-pdf-v1"
      },
      "geometry": {
        "type": "Polygon",
        "coordinates": [
          [
            [
              5.4679747,
              52.2374845
            ],
            [
              5.4677915,
              52.2374845
            ],
            [
              5.4675084,
              52.2365601
            ],
            [
              5.4673252,
              52.2353076
            ],
            [
              5.4674251,
              52.2346118
            ],
            [
              5.4655933,
              52.2335582
            ],
            [
              5.4657099,
              52.2334787
            ],
            [
              5.4676083,
              52.2345621
            ],
            [
              5.4675251,
              52.2355263
            ],
            [
              5.4676916,
              52.2365999
            ],
            [
              5.4679747,
              52.2374845
            ]
          ]
        ]
      }
    },
    {
      "type": "Feature",
      "properties": {
        "category": "losloopgebied",
        "source": "Gemeente Nijkerk",
        "source_url": "https://www.nijkerk.eu/hondenbeleid",
        "source_map": "https://cuatro.sim-cdn.nl/nijkerk/uploads/2.2%20Hondenuitlaatkaart%20Nijkerk%20jan%202026.pdf?cb=-utJx3kH",
        "source_decision": "collegebesluit 3 maart 2026",
        "digitalisation": "Whatsup dog",
        "status": "gedigitaliseerd van officiële kaart",
        "area_m2_approx": 1579.9,
        "id": "nijkerk-losloop-02",
        "name": "Losloopgebied 2",
        "quality": "digitised-from-official-pdf-v1"
      },
      "geometry": {
        "type": "Polygon",
        "coordinates": [
          [
            [
              5.4855268,
              52.2316099
            ],
            [
              5.4850439,
              52.2313813
            ],
            [
              5.4859764,
              52.2307948
            ],
            [
              5.4861263,
              52.2307252
            ],
            [
              5.4863428,
              52.2307948
            ],
            [
              5.4861596,
              52.2308147
            ],
            [
              5.4853436,
              52.2313713
            ],
            [
              5.4853436,
              52.2314012
            ],
            [
              5.4856101,
              52.2315304
            ],
            [
              5.4855268,
              52.2316099
            ]
          ]
        ]
      }
    },
    {
      "type": "Feature",
      "properties": {
        "category": "losloopgebied",
        "source": "Gemeente Nijkerk",
        "source_url": "https://www.nijkerk.eu/hondenbeleid",
        "source_map": "https://cuatro.sim-cdn.nl/nijkerk/uploads/2.2%20Hondenuitlaatkaart%20Nijkerk%20jan%202026.pdf?cb=-utJx3kH",
        "source_decision": "collegebesluit 3 maart 2026",
        "digitalisation": "Whatsup dog",
        "status": "gedigitaliseerd van officiële kaart",
        "area_m2_approx": 1482.1,
        "id": "nijkerk-losloop-03",
        "name": "Losloopgebied 3",
        "quality": "digitised-from-official-pdf-v1"
      },
      "geometry": {
        "type": "Polygon",
        "coordinates": [
          [
            [
              5.4957517,
              52.2270673
            ],
            [
              5.4955019,
              52.2268386
            ],
            [
              5.4960514,
              52.2265901
            ],
            [
              5.4963345,
              52.2268188
            ],
            [
              5.4957517,
              52.2270673
            ]
          ]
        ]
      }
    },
    {
      "type": "Feature",
      "properties": {
        "category": "losloopgebied",
        "source": "Gemeente Nijkerk",
        "source_url": "https://www.nijkerk.eu/hondenbeleid",
        "source_map": "https://cuatro.sim-cdn.nl/nijkerk/uploads/2.2%20Hondenuitlaatkaart%20Nijkerk%20jan%202026.pdf?cb=-utJx3kH",
        "source_decision": "collegebesluit 3 maart 2026",
        "digitalisation": "Whatsup dog",
        "status": "gedigitaliseerd van officiële kaart",
        "area_m2_approx": 855.5,
        "id": "nijkerk-losloop-04",
        "name": "Van der Flierhof",
        "name_basis": "confirmed location matched to official-map trace",
        "quality": "digitised-from-official-pdf-v1"
      },
      "geometry": {
        "type": "Polygon",
        "coordinates": [
          [
            [
              5.4709056,
              52.2256756
            ],
            [
              5.4703227,
              52.2256359
            ],
            [
              5.4703894,
              52.2254073
            ],
            [
              5.4706725,
              52.2254371
            ],
            [
              5.4709222,
              52.2255663
            ],
            [
              5.4709056,
              52.2256756
            ]
          ]
        ]
      }
    },
    {
      "type": "Feature",
      "properties": {
        "category": "losloopgebied",
        "source": "Gemeente Nijkerk",
        "source_url": "https://www.nijkerk.eu/hondenbeleid",
        "source_map": "https://cuatro.sim-cdn.nl/nijkerk/uploads/2.2%20Hondenuitlaatkaart%20Nijkerk%20jan%202026.pdf?cb=-utJx3kH",
        "source_decision": "collegebesluit 3 maart 2026",
        "digitalisation": "Whatsup dog",
        "status": "gedigitaliseerd van officiële kaart",
        "area_m2_approx": 2386.8,
        "id": "nijkerk-losloop-05",
        "name": "Losloopgebied 5",
        "quality": "digitised-from-official-pdf-v1"
      },
      "geometry": {
        "type": "Polygon",
        "coordinates": [
          [
            [
              5.4966842,
              52.2233993
            ],
            [
              5.4966842,
              52.2230614
            ],
            [
              5.4976168,
              52.2230614
            ],
            [
              5.4976168,
              52.2233993
            ],
            [
              5.4966842,
              52.2233993
            ]
          ]
        ]
      }
    },
    {
      "type": "Feature",
      "properties": {
        "category": "losloopgebied",
        "source": "Gemeente Nijkerk",
        "source_url": "https://www.nijkerk.eu/hondenbeleid",
        "source_map": "https://cuatro.sim-cdn.nl/nijkerk/uploads/2.2%20Hondenuitlaatkaart%20Nijkerk%20jan%202026.pdf?cb=-utJx3kH",
        "source_decision": "collegebesluit 3 maart 2026",
        "digitalisation": "Whatsup dog",
        "status": "gedigitaliseerd van officiële kaart",
        "area_m2_approx": 2086.5,
        "id": "nijkerk-losloop-06",
        "name": "Doornsteeg",
        "name_basis": "confirmed location matched to official-map trace",
        "quality": "digitised-from-official-pdf-v1"
      },
      "geometry": {
        "type": "Polygon",
        "coordinates": [
          [
            [
              5.4605142,
              52.2233397
            ],
            [
              5.4605142,
              52.2230216
            ],
            [
              5.4613802,
              52.2230216
            ],
            [
              5.4613802,
              52.2233397
            ],
            [
              5.4605142,
              52.2233397
            ]
          ]
        ]
      }
    },
    {
      "type": "Feature",
      "properties": {
        "category": "losloopgebied",
        "source": "Gemeente Nijkerk",
        "source_url": "https://www.nijkerk.eu/hondenbeleid",
        "source_map": "https://cuatro.sim-cdn.nl/nijkerk/uploads/2.2%20Hondenuitlaatkaart%20Nijkerk%20jan%202026.pdf?cb=-utJx3kH",
        "source_decision": "collegebesluit 3 maart 2026",
        "digitalisation": "Whatsup dog",
        "status": "gedigitaliseerd van officiële kaart",
        "area_m2_approx": 2998.7,
        "id": "nijkerk-losloop-07",
        "name": "Losloopgebied 7",
        "quality": "digitised-from-official-pdf-v1"
      },
      "geometry": {
        "type": "Polygon",
        "coordinates": [
          [
            [
              5.4855601,
              52.2213119
            ],
            [
              5.485327,
              52.221302
            ],
            [
              5.4851604,
              52.2212523
            ],
            [
              5.4850439,
              52.2212523
            ],
            [
              5.4846275,
              52.2210634
            ],
            [
              5.4845942,
              52.2209938
            ],
            [
              5.4846275,
              52.2208845
            ],
            [
              5.4848107,
              52.2207453
            ],
            [
              5.4858099,
              52.2210535
            ],
            [
              5.4855601,
              52.2213119
            ]
          ]
        ]
      }
    },
    {
      "type": "Feature",
      "properties": {
        "category": "losloopgebied",
        "source": "Gemeente Nijkerk",
        "source_url": "https://www.nijkerk.eu/hondenbeleid",
        "source_map": "https://cuatro.sim-cdn.nl/nijkerk/uploads/2.2%20Hondenuitlaatkaart%20Nijkerk%20jan%202026.pdf?cb=-utJx3kH",
        "source_decision": "collegebesluit 3 maart 2026",
        "digitalisation": "Whatsup dog",
        "status": "gedigitaliseerd van officiële kaart",
        "area_m2_approx": 299.0,
        "id": "nijkerk-losloop-08",
        "name": "Stadspark Nijkerk",
        "name_basis": "confirmed location matched to official-map trace",
        "quality": "digitised-from-official-pdf-v1"
      },
      "geometry": {
        "type": "Polygon",
        "coordinates": [
          [
            [
              5.4863428,
              52.220974
            ],
            [
              5.4862096,
              52.2210833
            ],
            [
              5.4858765,
              52.2209839
            ],
            [
              5.4859931,
              52.2209342
            ],
            [
              5.4861763,
              52.2209342
            ],
            [
              5.4863428,
              52.220974
            ]
          ]
        ]
      }
    },
    {
      "type": "Feature",
      "properties": {
        "category": "losloopgebied",
        "source": "Gemeente Nijkerk",
        "source_url": "https://www.nijkerk.eu/hondenbeleid",
        "source_map": "https://cuatro.sim-cdn.nl/nijkerk/uploads/2.2%20Hondenuitlaatkaart%20Nijkerk%20jan%202026.pdf?cb=-utJx3kH",
        "source_decision": "collegebesluit 3 maart 2026",
        "digitalisation": "Whatsup dog",
        "status": "gedigitaliseerd van officiële kaart",
        "area_m2_approx": 2917.2,
        "id": "nijkerk-losloop-09",
        "name": "Losloopgebied 9",
        "quality": "digitised-from-official-pdf-v1"
      },
      "geometry": {
        "type": "Polygon",
        "coordinates": [
          [
            [
              5.4849273,
              52.2206757
            ],
            [
              5.4856267,
              52.2204372
            ],
            [
              5.486043,
              52.2203477
            ],
            [
              5.4861097,
              52.2203676
            ],
            [
              5.4861596,
              52.2205068
            ],
            [
              5.4859931,
              52.2208149
            ],
            [
              5.4858266,
              52.2208547
            ],
            [
              5.48571,
              52.2209342
            ],
            [
              5.4849273,
              52.2206757
            ]
          ]
        ]
      }
    },
    {
      "type": "Feature",
      "properties": {
        "category": "losloopgebied",
        "source": "Gemeente Nijkerk",
        "source_url": "https://www.nijkerk.eu/hondenbeleid",
        "source_map": "https://cuatro.sim-cdn.nl/nijkerk/uploads/2.2%20Hondenuitlaatkaart%20Nijkerk%20jan%202026.pdf?cb=-utJx3kH",
        "source_decision": "collegebesluit 3 maart 2026",
        "digitalisation": "Whatsup dog",
        "status": "gedigitaliseerd van officiële kaart",
        "area_m2_approx": 1086.4,
        "id": "nijkerk-losloop-10",
        "name": "Antonie Meilingstraat",
        "name_basis": "confirmed location matched to official-map trace",
        "quality": "digitised-from-official-pdf-v1"
      },
      "geometry": {
        "type": "Polygon",
        "coordinates": [
          [
            [
              5.4748523,
              52.2202384
            ],
            [
              5.4748523,
              52.2200992
            ],
            [
              5.4751854,
              52.2199104
            ],
            [
              5.4755184,
              52.2200495
            ],
            [
              5.4753019,
              52.2202384
            ],
            [
              5.4748523,
              52.2202384
            ]
          ]
        ]
      }
    },
    {
      "type": "Feature",
      "properties": {
        "category": "losloopgebied",
        "source": "Gemeente Nijkerk",
        "source_url": "https://www.nijkerk.eu/hondenbeleid",
        "source_map": "https://cuatro.sim-cdn.nl/nijkerk/uploads/2.2%20Hondenuitlaatkaart%20Nijkerk%20jan%202026.pdf?cb=-utJx3kH",
        "source_decision": "collegebesluit 3 maart 2026",
        "digitalisation": "Whatsup dog",
        "status": "gedigitaliseerd van officiële kaart",
        "area_m2_approx": 2162.5,
        "id": "nijkerk-losloop-11",
        "name": "Losloopgebied 11",
        "quality": "digitised-from-official-pdf-v1"
      },
      "geometry": {
        "type": "Polygon",
        "coordinates": [
          [
            [
              5.4716883,
              52.2204869
            ],
            [
              5.4712386,
              52.2203179
            ],
            [
              5.4714385,
              52.2199501
            ],
            [
              5.4715384,
              52.21997
            ],
            [
              5.4715884,
              52.2199402
            ],
            [
              5.4715884,
              52.2199004
            ],
            [
              5.4714884,
              52.2198805
            ],
            [
              5.4716383,
              52.219632
            ],
            [
              5.4716883,
              52.2196817
            ],
            [
              5.4717715,
              52.2196917
            ],
            [
              5.4718881,
              52.2197513
            ],
            [
              5.4716883,
              52.2204869
            ]
          ]
        ]
      }
    },
    {
      "type": "Feature",
      "properties": {
        "category": "losloopgebied",
        "source": "Gemeente Nijkerk",
        "source_url": "https://www.nijkerk.eu/hondenbeleid",
        "source_map": "https://cuatro.sim-cdn.nl/nijkerk/uploads/2.2%20Hondenuitlaatkaart%20Nijkerk%20jan%202026.pdf?cb=-utJx3kH",
        "source_decision": "collegebesluit 3 maart 2026",
        "digitalisation": "Whatsup dog",
        "status": "gedigitaliseerd van officiële kaart",
        "area_m2_approx": 569.4,
        "id": "nijkerk-losloop-12",
        "name": "Losloopgebied 12",
        "quality": "digitised-from-official-pdf-v1"
      },
      "geometry": {
        "type": "Polygon",
        "coordinates": [
          [
            [
              5.4929373,
              52.2196022
            ],
            [
              5.49367,
              52.2192444
            ],
            [
              5.493337,
              52.2196122
            ],
            [
              5.4929373,
              52.2196022
            ]
          ]
        ]
      }
    },
    {
      "type": "Feature",
      "properties": {
        "category": "losloopgebied",
        "source": "Gemeente Nijkerk",
        "source_url": "https://www.nijkerk.eu/hondenbeleid",
        "source_map": "https://cuatro.sim-cdn.nl/nijkerk/uploads/2.2%20Hondenuitlaatkaart%20Nijkerk%20jan%202026.pdf?cb=-utJx3kH",
        "source_decision": "collegebesluit 3 maart 2026",
        "digitalisation": "Whatsup dog",
        "status": "gedigitaliseerd van officiële kaart",
        "area_m2_approx": 712.4,
        "id": "nijkerk-losloop-13",
        "name": "Bramenhof",
        "name_basis": "confirmed location matched to official-map trace",
        "quality": "digitised-from-official-pdf-v1"
      },
      "geometry": {
        "type": "Polygon",
        "coordinates": [
          [
            [
              5.5001147,
              52.2193935
            ],
            [
              5.5001147,
              52.2190456
            ],
            [
              5.5003812,
              52.2190356
            ],
            [
              5.5003812,
              52.2193935
            ],
            [
              5.5001147,
              52.2193935
            ]
          ]
        ]
      }
    },
    {
      "type": "Feature",
      "properties": {
        "category": "losloopgebied",
        "source": "Gemeente Nijkerk",
        "source_url": "https://www.nijkerk.eu/hondenbeleid",
        "source_map": "https://cuatro.sim-cdn.nl/nijkerk/uploads/2.2%20Hondenuitlaatkaart%20Nijkerk%20jan%202026.pdf?cb=-utJx3kH",
        "source_decision": "collegebesluit 3 maart 2026",
        "digitalisation": "Whatsup dog",
        "status": "gedigitaliseerd van officiële kaart",
        "area_m2_approx": 5757.9,
        "id": "nijkerk-losloop-14",
        "name": "Losloopgebied 14",
        "quality": "digitised-from-official-pdf-v1"
      },
      "geometry": {
        "type": "Polygon",
        "coordinates": [
          [
            [
              5.4546524,
              52.2193239
            ],
            [
              5.453903,
              52.2192742
            ],
            [
              5.4530204,
              52.2194631
            ],
            [
              5.452321,
              52.2182305
            ],
            [
              5.4526041,
              52.218141
            ],
            [
              5.4531536,
              52.219135
            ],
            [
              5.4538031,
              52.2188766
            ],
            [
              5.4541029,
              52.2191052
            ],
            [
              5.4545691,
              52.2192642
            ],
            [
              5.4546524,
              52.2193239
            ]
          ]
        ]
      }
    },
    {
      "type": "Feature",
      "properties": {
        "category": "losloopgebied",
        "source": "Gemeente Nijkerk",
        "source_url": "https://www.nijkerk.eu/hondenbeleid",
        "source_map": "https://cuatro.sim-cdn.nl/nijkerk/uploads/2.2%20Hondenuitlaatkaart%20Nijkerk%20jan%202026.pdf?cb=-utJx3kH",
        "source_decision": "collegebesluit 3 maart 2026",
        "digitalisation": "Whatsup dog",
        "status": "gedigitaliseerd van officiële kaart",
        "area_m2_approx": 857.1,
        "id": "nijkerk-losloop-15",
        "name": "Losloopgebied 15",
        "quality": "digitised-from-official-pdf-v1"
      },
      "geometry": {
        "type": "Polygon",
        "coordinates": [
          [
            [
              5.4976001,
              52.217803
            ],
            [
              5.4975335,
              52.2177732
            ],
            [
              5.4974669,
              52.2177832
            ],
            [
              5.4974169,
              52.2177136
            ],
            [
              5.4973004,
              52.2176639
            ],
            [
              5.4972671,
              52.2174353
            ],
            [
              5.4976168,
              52.2174054
            ],
            [
              5.4976501,
              52.2177832
            ],
            [
              5.4976001,
              52.217803
            ]
          ]
        ]
      }
    },
    {
      "type": "Feature",
      "properties": {
        "category": "losloopgebied",
        "source": "Gemeente Nijkerk",
        "source_url": "https://www.nijkerk.eu/hondenbeleid",
        "source_map": "https://cuatro.sim-cdn.nl/nijkerk/uploads/2.2%20Hondenuitlaatkaart%20Nijkerk%20jan%202026.pdf?cb=-utJx3kH",
        "source_decision": "collegebesluit 3 maart 2026",
        "digitalisation": "Whatsup dog",
        "status": "gedigitaliseerd van officiële kaart",
        "area_m2_approx": 37129.2,
        "id": "nijkerk-losloop-16",
        "name": "Losloopgebied 16",
        "quality": "digitised-from-official-pdf-v1"
      },
      "geometry": {
        "type": "Polygon",
        "coordinates": [
          [
            [
              5.4505891,
              52.2162723
            ],
            [
              5.4499063,
              52.2159641
            ],
            [
              5.4495899,
              52.2157156
            ],
            [
              5.4493568,
              52.215318
            ],
            [
              5.4493235,
              52.2148409
            ],
            [
              5.4496232,
              52.2144433
            ],
            [
              5.4507223,
              52.213996
            ],
            [
              5.4508389,
              52.2138369
            ],
            [
              5.4503726,
              52.2134294
            ],
            [
              5.4509222,
              52.2129622
            ],
            [
              5.451938,
              52.2127932
            ],
            [
              5.452321,
              52.2129423
            ],
            [
              5.4527706,
              52.2129324
            ],
            [
              5.4528039,
              52.2134095
            ],
            [
              5.4509055,
              52.2150894
            ],
            [
              5.4504226,
              52.2150695
            ],
            [
              5.4500895,
              52.2149403
            ],
            [
              5.4498564,
              52.2150198
            ],
            [
              5.4498231,
              52.2153379
            ],
            [
              5.4500562,
              52.215825
            ],
            [
              5.4502227,
              52.2158647
            ],
            [
              5.4510387,
              52.2157355
            ],
            [
              5.4512719,
              52.2159144
            ],
            [
              5.4513052,
              52.2161927
            ],
            [
              5.4505891,
              52.2162723
            ]
          ]
        ]
      }
    },
    {
      "type": "Feature",
      "properties": {
        "category": "losloopgebied",
        "source": "Gemeente Nijkerk",
        "source_url": "https://www.nijkerk.eu/hondenbeleid",
        "source_map": "https://cuatro.sim-cdn.nl/nijkerk/uploads/2.2%20Hondenuitlaatkaart%20Nijkerk%20jan%202026.pdf?cb=-utJx3kH",
        "source_decision": "collegebesluit 3 maart 2026",
        "digitalisation": "Whatsup dog",
        "status": "gedigitaliseerd van officiële kaart",
        "area_m2_approx": 1057.7,
        "id": "nijkerk-losloop-17",
        "name": "Losloopgebied 17",
        "quality": "digitised-from-official-pdf-v1"
      },
      "geometry": {
        "type": "Polygon",
        "coordinates": [
          [
            [
              5.4923711,
              52.2144333
            ],
            [
              5.4921879,
              52.214155
            ],
            [
              5.4925043,
              52.2139463
            ],
            [
              5.4926875,
              52.2142544
            ],
            [
              5.4926209,
              52.2143638
            ],
            [
              5.4923711,
              52.2144333
            ]
          ]
        ]
      }
    },
    {
      "type": "Feature",
      "properties": {
        "category": "losloopgebied",
        "source": "Gemeente Nijkerk",
        "source_url": "https://www.nijkerk.eu/hondenbeleid",
        "source_map": "https://cuatro.sim-cdn.nl/nijkerk/uploads/2.2%20Hondenuitlaatkaart%20Nijkerk%20jan%202026.pdf?cb=-utJx3kH",
        "source_decision": "collegebesluit 3 maart 2026",
        "digitalisation": "Whatsup dog",
        "status": "gedigitaliseerd van officiële kaart",
        "area_m2_approx": 4202.4,
        "id": "nijkerk-losloop-18",
        "name": "Losloopgebied 18",
        "quality": "digitised-from-official-pdf-v1"
      },
      "geometry": {
        "type": "Polygon",
        "coordinates": [
          [
            [
              5.4728873,
              52.213827
            ],
            [
              5.4725376,
              52.2138866
            ],
            [
              5.4710888,
              52.2124155
            ],
            [
              5.4715884,
              52.2125248
            ],
            [
              5.4728873,
              52.213827
            ]
          ]
        ]
      }
    },
    {
      "type": "Feature",
      "properties": {
        "category": "losloopgebied",
        "source": "Gemeente Nijkerk",
        "source_url": "https://www.nijkerk.eu/hondenbeleid",
        "source_map": "https://cuatro.sim-cdn.nl/nijkerk/uploads/2.2%20Hondenuitlaatkaart%20Nijkerk%20jan%202026.pdf?cb=-utJx3kH",
        "source_decision": "collegebesluit 3 maart 2026",
        "digitalisation": "Whatsup dog",
        "status": "gedigitaliseerd van officiële kaart",
        "area_m2_approx": 1890.8,
        "id": "nijkerk-losloop-19",
        "name": "Eikepage",
        "name_basis": "confirmed location matched to official-map trace",
        "quality": "digitised-from-official-pdf-v1"
      },
      "geometry": {
        "type": "Polygon",
        "coordinates": [
          [
            [
              5.4619963,
              52.2128628
            ],
            [
              5.4623127,
              52.2127435
            ],
            [
              5.462779,
              52.2124155
            ],
            [
              5.463595,
              52.212336
            ],
            [
              5.463595,
              52.2124453
            ],
            [
              5.4627623,
              52.2125248
            ],
            [
              5.462729,
              52.2127435
            ],
            [
              5.4626624,
              52.212833
            ],
            [
              5.4625625,
              52.2128827
            ],
            [
              5.4623793,
              52.2129224
            ],
            [
              5.4621628,
              52.2129224
            ],
            [
              5.4620962,
              52.2129423
            ],
            [
              5.4619963,
              52.2128628
            ]
          ]
        ]
      }
    },
    {
      "type": "Feature",
      "properties": {
        "category": "losloopgebied",
        "source": "Gemeente Nijkerk",
        "source_url": "https://www.nijkerk.eu/hondenbeleid",
        "source_map": "https://cuatro.sim-cdn.nl/nijkerk/uploads/2.2%20Hondenuitlaatkaart%20Nijkerk%20jan%202026.pdf?cb=-utJx3kH",
        "source_decision": "collegebesluit 3 maart 2026",
        "digitalisation": "Whatsup dog",
        "status": "gedigitaliseerd van officiële kaart",
        "area_m2_approx": 3115.5,
        "id": "nijkerk-losloop-20",
        "name": "Losloopgebied 20",
        "quality": "digitised-from-official-pdf-v1"
      },
      "geometry": {
        "type": "Polygon",
        "coordinates": [
          [
            [
              5.4577498,
              52.2098708
            ],
            [
              5.4574834,
              52.2095229
            ],
            [
              5.4584159,
              52.2091849
            ],
            [
              5.4586824,
              52.2095229
            ],
            [
              5.4577498,
              52.2098708
            ]
          ]
        ]
      }
    }
  ]
}